{
    "links": {
        "self": "http://www.neowsapp.com/rest/v1/neo/3802453?api_key=iIulBulltgU6a56xZRHN4H3l9WmuAYTsLGpBGhQ2"
    },
    "id": "3802453",
    "neo_reference_id": "3802453",
    "name": "(2018 GM2)",
    "designation": "2018 GM2",
    "nasa_jpl_url": "http://ssd.jpl.nasa.gov/sbdb.cgi?sstr=3802453",
    "absolute_magnitude_h": 25.1,
    "estimated_diameter": {
        "kilometers": {
            "estimated_diameter_min": 0.0253837029,
            "estimated_diameter_max": 0.0567596853
        },
        "meters": {
            "estimated_diameter_min": 25.3837029364,
            "estimated_diameter_max": 56.7596852866
        },
        "miles": {
            "estimated_diameter_min": 0.0157726969,
            "estimated_diameter_max": 0.0352688224
        },
        "feet": {
            "estimated_diameter_min": 83.279867942,
            "estimated_diameter_max": 186.2194458756
        }
    },
    "is_potentially_hazardous_asteroid": false,
    "close_approach_data": [
        {
            "close_approach_date": "2016-04-24",
            "close_approach_date_full": "2016-Apr-24 14:36",
            "epoch_date_close_approach": 1461508560000,
            "relative_velocity": {
                "kilometers_per_second": "20.674805664",
                "kilometers_per_hour": "74429.300390369",
                "miles_per_hour": "46247.4727897824"
            },
            "miss_distance": {
                "astronomical": "0.4071425115",
                "lunar": "158.3784369735",
                "kilometers": "60907652.506850505",
                "miles": "37846260.313346769"
            },
            "orbiting_body": "Earth"
        },
        {
            "close_approach_date": "2017-12-08",
            "close_approach_date_full": "2017-Dec-08 10:37",
            "epoch_date_close_approach": 1512729420000,
            "relative_velocity": {
                "kilometers_per_second": "5.1746021029",
                "kilometers_per_hour": "18628.5675706078",
                "miles_per_hour": "11575.0674440813"
            },
            "miss_distance": {
                "astronomical": "0.3632070899",
                "lunar": "141.2875579711",
                "kilometers": "54335007.017938513",
                "miles": "33762207.7865689594"
            },
            "orbiting_body": "Earth"
        },
        {
            "close_approach_date": "2018-04-02",
            "close_approach_date_full": "2018-Apr-02 13:57",
            "epoch_date_close_approach": 1522677420000,
            "relative_velocity": {
                "kilometers_per_second": "10.2551995943",
                "kilometers_per_hour": "36918.7185394904",
                "miles_per_hour": "22939.8559724962"
            },
            "miss_distance": {
                "astronomical": "0.0646573845",
                "lunar": "25.1517225705",
                "kilometers": "9672607.000971015",
                "miles": "6010279.290049407"
            },
            "orbiting_body": "Earth"
        },
        {
            "close_approach_date": "2019-12-18",
            "close_approach_date_full": "2019-Dec-18 04:37",
            "epoch_date_close_approach": 1576643820000,
            "relative_velocity": {
                "kilometers_per_second": "11.9007537593",
                "kilometers_per_hour": "42842.7135334505",
                "miles_per_hour": "26620.7960841598"
            },
            "miss_distance": {
                "astronomical": "0.2340249825",
                "lunar": "91.0357181925",
                "kilometers": "35009638.908787275",
                "miles": "21753980.872423395"
            },
            "orbiting_body": "Earth"
        }
    ],
    "orbital_data": {
        "orbit_id": "6",
        "orbit_determination_date": "2018-05-13 06:25:05",
        "first_observation_date": "2018-04-11",
        "last_observation_date": "2018-04-25",
        "data_arc_in_days": 14,
        "observations_used": 45,
        "orbit_uncertainty": "8",
        "minimum_orbit_intersection": ".0645648",
        "jupiter_tisserand_invariant": "4.329",
        "epoch_osculation": "2458222.5",
        "eccentricity": ".3971931757304721",
        "semi_major_axis": "1.554495866877259",
        "inclination": "12.02840690881777",
        "ascending_node_longitude": "25.31634300467254",
        "orbital_period": "707.9177216578183",
        "perihelion_distance": ".9370607168523875",
        "perihelion_argument": "116.9926569828031",
        "aphelion_distance": "2.171931016902131",
        "perihelion_time": "2458169.432734062106",
        "mean_anomaly": "26.98649172520097",
        "mean_motion": ".5085336741633527",
        "equinox": "J2000",
        "orbit_class": {
            "orbit_class_type": "APO",
            "orbit_class_description": "Near-Earth asteroid orbits which cross the Earth’s orbit similar to that of 1862 Apollo",
            "orbit_class_range": "a (semi-major axis) > 1.0 AU; q (perihelion) < 1.017 AU"
        }
    },
    "is_sentry_object": false
}